[{"OBJECT_NAME":"OBJECT Y","OBJECT_ID":"2023-085Y","EPOCH":"2026-03-09T22:38:54.992256","MEAN_MOTION":15.32500153,"ECCENTRICITY":0.00063298,"INCLINATION":97.4849,"RA_OF_ASC_NODE":180.8653,"ARG_OF_PERICENTER":67.4431,"MEAN_ANOMALY":292.748,"EPHEMERIS_TYPE":0,"CLASSIFICATION_TYPE":"U","NORAD_CAT_ID":57026,"ELEMENT_SET_NO":999,"REV_AT_EPOCH":15160,"BSTAR":0.00065512761,"MEAN_MOTION_DOT":0.00020524,"MEAN_MOTION_DDOT":0},{"OBJECT_NAME":"STARLINK-32478","OBJECT_ID":"2024-196V","EPOCH":"2026-03-09T19:21:37.644480","MEAN_MOTION":15.30194201,"ECCENTRICITY":0.0001426,"INCLINATION":53.1607,"RA_OF_ASC_NODE":100.8552,"ARG_OF_PERICENTER":82.1334,"MEAN_ANOMALY":277.9828,"EPHEMERIS_TYPE":0,"CLASSIFICATION_TYPE":"U","NORAD_CAT_ID":61726,"ELEMENT_SET_NO":999,"REV_AT_EPOCH":7717,"BSTAR":-2.2344937e-5,"MEAN_MOTION_DOT":-1.021e-5,"MEAN_MOTION_DDOT":0}]
